INTELSAT 902 (IS-902)   
1 26900U 01039A   26197.10114556 -.00000297  00000+0  00000+0 0  9995
2 26900   6.1871  71.4271 0004216  42.6154 166.2078  1.00272315 90986
INTELSAT 904 (IS-904)   
1 27380U 02007A   26197.09558764 -.00000239  00000+0  00000+0 0  9991
2 27380   6.9902  68.8335 0005388  26.1937 201.8403  1.00270497 52053
DIRECTV 5 (TEMPO 1)     
1 27426U 02023A   26197.10562498 -.00000070  00000+0  00000+0 0  9994
2 27426   4.9497  74.9481 0003124  47.2032  99.6998  1.00271453 88411
INTELSAT 905 (IS-905)   
1 27438U 02027A   26196.74378094  .00000080  00000+0  00000+0 0  9997
2 27438   6.8231  69.4519 0003439  47.2275 307.4543  1.00271188 51646
GALAXY 3C (G-3C)        
1 27445U 02030A   26197.10857166 -.00000165  00000+0  00000+0 0  9997
2 27445   3.8066  77.6001 0001584  33.4771 127.1170  1.00270773 46782
INTELSAT 906 (IS-906)   
1 27513U 02041A   26197.14005774 -.00000001  00000+0  00000+0 0  9998
2 27513   5.8732  72.5625 0003779  26.1655 309.8259  1.00273340 87318
GALAXY 13 (HORIZONS-1)  
1 27954U 03044A   26197.09767612  .00000121  00000+0  00000+0 0  9993
2 27954   1.4913  83.4927 0002130  31.5265  64.0606  1.00271686 46865
INTELSAT 10-02          
1 28358U 04022A   26197.07891987 -.00000021  00000+0  00000+0 0  9990
2 28358   0.0545 251.7154 0000304 338.2041  91.4026  1.00272671 80843
DIRECTV 8               
1 28659U 05019A   26196.88994816  .00000000  00000+0  00000+0 0  9990
2 28659   0.0200  58.3119 0003196  72.1395   4.6229  1.00270575 77360
GALAXY 28 (G-28)        
1 28702U 05022A   26197.12194433 -.00000213  00000+0  00000+0 0  9995
2 28702   3.3705  78.5758 0002531  28.7627 203.4227  1.00271773 52265
GALAXY 16 (G-16)        
1 29236U 06023A   26197.10770499 -.00000137  00000+0  00000+0 0  9995
2 29236   0.0253 159.3024 0002531 313.8281 120.5748  1.00271511 73268
DIRECTV 9S              
1 29494U 06043A   26197.10735831 -.00000125  00000+0  00000+0 0  9991
2 29494   2.4935  80.5533 0004931  31.8569 118.9798  1.00271439 51675
GALAXY 17 (G-17)        
1 31307U 07016B   26197.11047832 -.00000218  00000+0  00000+0 0  9999
2 31307   3.0428  79.5342 0003590  34.7108 134.4498  1.00271618 70098
INTELSAT 11 (IS-11)     
1 32253U 07044B   26197.07891987 -.00000187  00000+0  00000+0 0  9999
2 32253   3.6387  78.3176 0004235 100.3049 142.4225  0.99052460 68736
HORIZONS-2              
1 32388U 07063B   26197.11255832 -.00000265  00000+0  00000+0 0  9994
2 32388   2.6748  80.2704 0003576  21.3071 159.0662  1.00268999 68107
DIRECTV 11              
1 32729U 08013A   26196.51016899 -.00000136  00000+0  00000+0 0  9997
2 32729   0.0353 223.2222 0000080 348.5472 166.0602  1.00271599 45871
GALAXY 18 (G-18)        
1 32951U 08024A   26196.88916816  .00000015  00000+0  00000+0 0  9999
2 32951   0.0149  64.7677 0002890  63.3023   2.7519  1.00271674 46146
GALAXY 19 (G-19)        
1 33376U 08045A   26197.10813831 -.00000150  00000+0  00000+0 0  9994
2 33376   0.0545 245.9268 0002367 239.1007 110.8489  1.00270917 65193
FM-5                    
1 35493U 09034A   26194.90035760 -.00000205  00000+0  00000+0 0  9998
2 35493   0.0457 259.5714 0000757  86.9227 183.2440  1.00271245 46912
INTELSAT 14 (IS-14)     
1 36097U 09064A   26197.10114556 -.00000284  00000+0  00000+0 0  9995
2 36097   0.0158 333.1299 0002245 151.2926 160.9084  1.00268372 60890
INTELSAT 15 (IS-15)     
1 36106U 09067A   26196.93024110 -.00000195  00000+0  00000+0 0  9996
2 36106   0.0167 359.1777 0002252 122.2404 232.3618  1.00268551 41511
DIRECTV 12              
1 36131U 09075A   26195.96641635 -.00000112  00000+0  00000+0 0  9991
2 36131   0.0065 109.4409 0000351 121.9560 306.6005  1.00271543 46831
INTELSAT 16 (IS-16)     
1 36397U 10006A   26197.12162573 -.00000255  00000+0  00000+0 0  9998
2 36397   0.0126  53.1158 0002383  85.0765 123.3322  1.00269811 59940
XM-5                    
1 37185U 10053A   26194.27598828 -.00000026  00000+0  00000+0 0  9991
2 37185   0.0648 265.0318 0001728 322.3275  47.9546  1.00270903 57741
INTELSAT 17 (IS-17)     
1 37238U 10065B   26197.06916265  .00000000  00000+0  00000+0 0  9993
2 37238   0.0364  98.8883 0002841  42.2074 243.6844  1.00271012 53537
INTELSAT 28 (IS-28)     
1 37392U 11016A   26197.09558764 -.00000237  00000+0  00000+0 0  9993
2 37392   1.8790  82.2706 0003717  40.4724 173.8888  1.00272146 53571
INTELSAT 18 (IS-18)     
1 37834U 11056A   26196.59271395  .00000043  00000+0  00000+0 0  9998
2 37834   0.0273 285.8659 0001888 199.7046 201.2331  1.00274455 54091
INTELSAT 22 (IS-22)     
1 38098U 12011A   26196.92772775 -.00000069  00000+0  00000+0 0  9997
2 38098   0.0158  42.6258 0001853  81.1126 216.1062  1.00271872  7471
INTELSAT 19 (IS-19)     
1 38356U 12030A   26196.80378252 -.00000067  00000+0  00000+0 0  9992
2 38356   0.0179  26.2491 0003197 101.7096 261.0415  1.00271388 50736
INTELSAT 20 (IS-20)     
1 38740U 12043A   26196.92703441 -.00000035  00000+0  00000+0 0  9993
2 38740   0.0123  66.6866 0001385 109.7940 159.5195  1.00272905 51035
INTELSAT 21 (IS-21)     
1 38749U 12045A   26197.11588117 -.00000295  00000+0  00000+0 0  9995
2 38749   0.0510 249.3606 0001567 236.7844 151.5211  1.00272687 50815
